[ {"name": "STARLINK-3649", "line1": "1 51980U 22025AA  26186.83913626  .00000524  00000+0  51019-4 0  9995", "line2": "2 51980  53.1591 228.5194 0000998  83.3429 276.7676 15.08832495238891"}, {"name": "STARLINK-3635", "line1": "1 51981U 22025AB  26187.25129606 -.00000183  00000+0  66203-5 0  9994", "line2": "2 51981  53.1593 226.6658 0001281  84.1089 276.0049 15.08819620238954"}, {"name": "STARLINK-3655", "line1": "1 51983U 22025AD  26187.31385576  .00000052  00000+0  21342-4 0  9991", "line2": "2 51983  53.1592 226.3910 0001042  73.8506 286.2600 15.08832756238969"}, {"name": "STARLINK-3664", "line1": "1 51984U 22025AE  26187.15290936 -.00000851  00000+0 -35371-4 0  9995", "line2": "2 51984  53.1585 227.1928 0001054  88.2778 271.8334 15.08824477238947"}, {"name": "STARLINK-3651", "line1": "1 51985U 22025AF  26187.25004630  .00054859  00000+0  24188-2 0  9998", "line2": "2 51985  53.1593 226.3584 0001965  97.2872 117.5032 15.21287302  5805"}, {"name": "STARLINK-3645", "line1": "1 51986U 22025AG  26187.25496470 -.00001575  00000+0 -80902-4 0  9993", "line2": "2 51986  53.1576 226.4945 0001081  84.1695 275.9420 15.08823492238962"}, {"name": "STARLINK-3644", "line1": "1 51987U 22025AH  26187.25004630 -.00016987  00000+0 -47704-3 0  9992", "line2": "2 51987  53.1606 224.1327 0001230  85.8602 312.3576 15.35407586  5746"}, {"name": "STARLINK-3640", "line1": "1 51988U 22025AJ  26187.25004630  .00047115  00000+0  21697-2 0  9990", "line2": "2 51988  53.1598 226.4104 0001142  44.2616   3.1972 15.19865151  5799"}, {"name": "STARLINK-3642", "line1": "1 51989U 22025AK  26186.84532823  .00001393  00000+0  52359-4 0  9994", "line2": "2 51989  53.1605 225.9901 0001318  69.3327 290.7816 15.34398112238930"}, {"name": "STARLINK-3657", "line1": "1 51990U 22025AL  26187.24945611 -.00000075  00000+0  13397-4 0  9990", "line2": "2 51990  53.1596 206.6722 0000810  73.3189 286.7891 15.08831361239236"}, {"name": "STARLINK-3652", "line1": "1 51991U 22025AM  26187.25004630  .01142331  00000+0  31251-1 0  9997", "line2": "2 51991  53.1599 224.3802 0000909  46.2848 285.4393 15.34372773  5843"}, {"name": "STARLINK-3643", "line1": "1 51992U 22025AN  26187.25004630  .00046987  00000+0  19043-2 0  9993", "line2": "2 51992  53.1610 206.0852 0000668  86.6105 280.0260 15.24214544  5806"}, {"name": "STARLINK-3648", "line1": "1 51993U 22025AP  26187.26233887 -.00001355  00000+0 -67089-4 0  9990", "line2": "2 51993  53.1587 226.6138 0000900  83.8895 276.2199 15.08825752238963"}, {"name": "STARLINK-3647", "line1": "1 51994U 22025AQ  26187.30097955 -.00000249  00000+0  24462-5 0  9999", "line2": "2 51994  53.1580 206.4399 0001143  78.9533 281.1587 15.08827823238828"}, {"name": "STARLINK-3636", "line1": "1 51995U 22025AR  26187.25004630  .01202081  00000+0  40132-1 0  9998", "line2": "2 51995  53.1591 205.8268 0001847  73.0138  26.2751 15.27798000  5803"}, {"name": "STARLINK-3538", "line1": "1 51996U 22025AS  26187.25004630  .01153585  00000+0  38527-1 0  9998", "line2": "2 51996  53.1597 205.7533 0001266 105.9517 112.2127 15.27899793  5854"}, {"name": "STARLINK-3589", "line1": "1 51997U 22025AT  26187.25004630  .00741965  00000+0  26526-1 0  9999", "line2": "2 51997  53.1611 205.8941 0001134  78.7176   5.8407 15.25945259  5808"}, {"name": "STARLINK-3618", "line1": "1 51998U 22025AU  26187.25004630  .00020565  00000+0  88313-3 0  9990", "line2": "2 51998  53.1597 206.1975 0001556  60.3124  89.5937 15.22684440  5649"}, {"name": "STARLINK-3653", "line1": "1 52000U 22025AW  26187.25312726 -.00000693  00000+0 -25457-4 0  9996", "line2": "2 52000  53.1598 206.5692 0001083  88.0184 272.0931 15.08829176238825"}, {"name": "STARLINK-3659", "line1": "1 52001U 22025AX  26187.19889482 -.00000628  00000+0 -21368-4 0  9993", "line2": "2 52001  53.1589 206.9123 0001138  79.4315 280.6804 15.08829006238815"}, {"name": "STARLINK-3668", "line1": "1 52002U 22025AY  26187.19794523 -.00001569  00000+0 -80552-4 0  9990", "line2": "2 52002  53.1578 206.9454 0001171  70.8823 289.2295 15.08831590238817"}, {"name": "STARLINK-3712", "line1": "1 52090U 22029C   26187.25004630  .00062136  00000+0  34655-2 0  9997", "line2": "2 52090  53.1594 276.6130 0000762 119.4924 268.0388 15.13005275  5699"}, {"name": "STARLINK-3716", "line1": "1 52092U 22029E   26187.25004630  .00063416  00000+0  36342-2 0  9996", "line2": "2 52092  53.1597 276.6418 0001060  64.7086 288.8736 15.12021099  5795"}, {"name": "STARLINK-3673", "line1": "1 52093U 22029F   26187.25004630  .00089660  00000+0  25572-2 0  9999", "line2": "2 52093  53.1598 274.0427 0001284  95.1905 215.5829 15.35321920  5808"}, {"name": "STARLINK-3714", "line1": "1 52094U 22029G   26187.25004630  .00057168  00000+0  32179-2 0  9999", "line2": "2 52094  53.1591 276.6324 0000643  42.7245 355.5360 15.12715935  5802"}, {"name": "STARLINK-3701", "line1": "1 52095U 22029H   26187.25004630  .00101203  00000+0  31937-2 0  9991", "line2": "2 52095  53.1587 274.3507 0001487  80.6144 112.7328 15.32052283  5856"}, {"name": "STARLINK-3717", "line1": "1 52096U 22029J   26187.25004630  .00054906  00000+0  23411-2 0  9997", "line2": "2 52096  53.1593 265.7250 0001353  89.9294 232.8812 15.22430156  5640"}, {"name": "STARLINK-3665", "line1": "1 52098U 22029L   26186.77566372 -.00001795  00000+0 -94748-4 0  9994", "line2": "2 52098  53.1595 278.8039 0000968  97.7349 262.3752 15.08819040238481"}, {"name": "STARLINK-3702", "line1": "1 52100U 22029N   26187.25004630  .00094567  00000+0  29703-2 0  9990", "line2": "2 52100  53.1589 274.3641 0001250  87.2901 119.8400 15.32238992  5858"}, {"name": "STARLINK-3703", "line1": "1 52101U 22029P   26187.24177880  .00054287  00000+0  33254-2 0  9999", "line2": "2 52101  53.1659 276.8855 0000418  27.7280 332.3734 15.09681193238540"}, {"name": "STARLINK-3709", "line1": "1 52102U 22029Q   26187.25004630  .00092209  00000+0  34321-2 0  9995", "line2": "2 52102  53.1592 265.7338 0001825  92.2120 119.7550 15.26730491  5802"}, {"name": "STARLINK-3705", "line1": "1 52103U 22029R   26187.25004630  .01098208  00000+0  38891-1 0  9997", "line2": "2 52103  53.1592 265.7005 0000822  62.3661 312.5858 15.26087672  5842"}, {"name": "STARLINK-3706", "line1": "1 52105U 22029T   26187.25004630  .00062298  00000+0  25134-2 0  9995", "line2": "2 52105  53.1607 265.6567 0001198  63.0031   9.1320 15.24238711  5842"}, {"name": "STARLINK-3670", "line1": "1 52106U 22029U   26187.24441474 -.00003813  00000+0 -10189-3 0  9991", "line2": "2 52106  53.1593 274.1458 0000966  78.4098 281.7013 15.34370393238575"}, {"name": "STARLINK-3658", "line1": "1 52107U 22029V   26187.25004630  .00062736  00000+0  26194-2 0  9991", "line2": "2 52107  53.1610 265.7033 0000776  86.0981 347.3139 15.23080044  5845"}, {"name": "STARLINK-3698", "line1": "1 52108U 22029W   26187.25004630  .00420196  00000+0  15125-1 0  9991", "line2": "2 52108  53.1640 265.6213 0000967  81.5914 353.7561 15.26255910  5845"}, {"name": "STARLINK-3687", "line1": "1 52110U 22029Y   26187.25004630  .01161907  00000+0  42126-1 0  9998", "line2": "2 52110  53.1607 265.6699 0001515  66.6637   3.8159 15.25148964  5840"}, {"name": "STARLINK-3708", "line1": "1 52111U 22029Z   26187.25004630  .00092329  00000+0  35716-2 0  9997", "line2": "2 52111  53.1618 265.7100 0002033  77.6787  51.5399 15.25450120  5795"}, {"name": "STARLINK-3734", "line1": "1 52112U 22029AA  26187.25004630  .00176839  00000+0  17950-2 0  9997", "line2": "2 52112  53.2172 247.5840 0000981  63.1543  45.8590 15.64145312  5900"}, {"name": "STARLINK-3736", "line1": "1 52113U 22029AB  26187.25004630  .00096111  00000+0  35012-2 0  9991", "line2": "2 52113  53.1593 265.2694 0001090  49.7634 347.7890 15.27418271  5806"}, {"name": "STARLINK-3737", "line1": "1 52114U 22029AC  26187.25004630  .00087696  00000+0  32715-2 0  9997", "line2": "2 52114  53.1601 265.5123 0001562 105.5239 105.7620 15.26683112  5746"}, {"name": "STARLINK-3685", "line1": "1 52115U 22029AD  26187.25004630  .00887127  00000+0  24016-1 0  9999", "line2": "2 52115  53.1593 264.1134 0000710  88.3790 221.6720 15.34510766  5852"}, {"name": "STARLINK-3735", "line1": "1 52116U 22029AE  26187.25004630  .00628370  00000+0  21969-1 0  9997", "line2": "2 52116  53.1638 265.4268 0001040  79.5683 215.6252 15.26696167  5758"}, {"name": "STARLINK-3738", "line1": "1 52117U 22029AF  26187.25004630  .00649473  00000+0  23916-1 0  9999", "line2": "2 52117  53.1631 265.5137 0001143  83.9346 267.9231 15.25269598  5858"}, {"name": "STARLINK-3743", "line1": "1 52118U 22029AG  26187.25004630  .00092043  00000+0  34495-2 0  9990", "line2": "2 52118  53.1589 265.6442 0001715  99.4157 124.0110 15.26504702  5857"}, {"name": "STARLINK-3558", "line1": "1 52119U 22029AH  26187.25004630  .00096359  00000+0  29152-2 0  9999", "line2": "2 52119  53.1602 264.3147 0000994  97.1277 191.2521 15.33423499  5749"}, {"name": "STARLINK-3534", "line1": "1 52120U 22029AJ  26187.25004630  .00020438  00000+0  61502-3 0  9992", "line2": "2 52120  53.1582 263.9655 0001130 101.0250 302.3604 15.34367334  5851"}, {"name": "STARLINK-3678", "line1": "1 52121U 22029AK  26186.47572970 -.00000123  00000+0  10385-4 0  9997", "line2": "2 52121  53.1595 260.1526 0001165  80.9689 279.1435 15.08838036238709"}, {"name": "STARLINK-3726", "line1": "1 52122U 22029AL  26187.25004630  .00059329  00000+0  23758-2 0  9995", "line2": "2 52122  53.1594 265.6341 0000718 104.6218 205.6257 15.24512638  5746"}, {"name": "STARLINK-3725", "line1": "1 52123U 22029AM  26187.17956711 -.00000982  00000+0 -43639-4 0  9998", "line2": "2 52123  53.1592 256.8102 0001175 100.1941 259.9183 15.08831648238828"}, {"name": "STARLINK-3727", "line1": "1 52125U 22029AP  26187.19334392 -.00001925  00000+0 -10291-3 0  9992", "line2": "2 52125  53.1587 256.9239 0001506  91.8413 268.2751 15.08822951238825"}, {"name": "STARLINK-3732", "line1": "1 52126U 22029AQ  26187.20069158  .00000864  00000+0  72379-4 0  9995", "line2": "2 52126  53.1589 256.8926 0001204  87.4895 272.6234 15.08818947238814"}]